              M50 Cartesian                         J2K Cartesian  
    -----------------------------------       --------------------------------
     X    =      -21078931.17                 X    =        -6440000.04
     Y    =        1568202.47  feet           Y    =          406056.61  meter
     Z    =        6939420.78                 Z    =         2083888.49
     XDOT =       4743.140676                 XDOT =        1475.974383
     YDOT =     -16789.911325  feet/sec       YDOT =       -5101.228361  meter/sec
     ZDOT =      18137.067525                 ZDOT =        5535.275006
 
              TDR Cartesian                         TDR Cartesian  
    -----------------------------------       --------------------------------
     X    =        9474744.92                 X    =         2887902.25
     Y    =      -18944011.75  feet           Y    =        -5774134.78  meter
     Z    =        6803659.77                 Z    =         2073755.50
     XDOT =      10665.866165                 XDOT =        3250.956007
     YDOT =      11883.411295  feet/sec       YDOT =        3622.063763  meter/sec
     ZDOT =      18168.684654                 ZDOT =        5537.815082
  
  
    The mean element set is posted at the UTC for which position is
    just north of the next ascending node relative to the above
    vector time
 
 
    TWO LINE MEAN ELEMENT SET
  
    ISS
    1 25544U 98067A   16076.24308019  .00016717  00000-0  10270-3 0  9149
    2 25544  51.6393 161.5610 0002049 298.9758  61.1189 15.54096278 30525
  
  
    Satellite: ISS
    Catalog Number: 25544
    Epoch time:      16076.24308019   =   yrday.fracday
    Element set:     914
    Inclination:       51.6393  deg
    RA of node:       161.5610  deg
    Eccentricity:     .0002049     
    Arg of perigee:   298.9758  deg
    Mean anomaly:      61.1189  deg
    Mean motion:   15.54096278  rev/day
    Decay rate:    1.67170E-04  rev/day^2
    Epoch rev:            3052
    Checksum:              318
 
 
    Coasting Arc #16 (Orbit 3066)
    ---------------------------------------
 
    Vector Time (GMT): 2016/077/04:23:20.227
    Vector Time (MET): N/A
    Weight (LBS)     : 890089.8
 
              M50 Cartesian                         M50 Keplerian  
    -----------------------------------       --------------------------------
     X    =        5756258.51                 A    =         6784158.27  meter
     Y    =         486164.71  meter          E    =           .0003901
     Z    =       -3561861.70                 I    =           51.78668
     XDOT =      -3220.321293                 Wp   =           65.44048
     YDOT =       5316.324786  meter/sec      RA   =          155.78654  deg
     ZDOT =      -4480.941232                 TA   =          156.47068
                                              MA   =          156.45283
                                              Ha   =            220.552  n.mi
                                              Hp   =            215.387
 
              M50 Cartesian                         J2K Cartesian  
    -----------------------------------       --------------------------------
     X    =       18885362.56                 X    =         5767696.10
     Y    =        1595028.57  feet           Y    =          550598.62  meter
     Z    =      -11685897.95                 Z    =        -3533871.77
     XDOT =     -10565.358574                 XDOT =       -3257.764144
     YDOT =      17442.010452  feet/sec       YDOT =        5280.103220  meter/sec
     ZDOT =     -14701.250762                 ZDOT =       -4496.676056
 
              TDR Cartesian                         TDR Cartesian  
    -----------------------------------       --------------------------------
     X    =      -10815067.33                 X    =        -3296432.52
     Y    =       15654387.87  feet           Y    =         4771457.42  meter
     Z    =      -11564415.47                 Z    =        -3524833.84
     XDOT =      -8778.826958                 XDOT =       -2675.786457
     YDOT =     -16970.812452  feet/sec       YDOT =       -5172.703635  meter/sec
     ZDOT =     -14770.419682                 ZDOT =       -4502.023919
  
  
    The mean element set is posted at the UTC for which position is
    just north of the next ascending node relative to the above
    vector time
 
 
    TWO LINE MEAN ELEMENT SET
  
    ISS
    1 25544U 98067A   16077.20763993  .00016717  00000-0  10270-3 0  9153
    2 25544  51.6387 156.7524 0002001 307.8240  52.2731 15.54096337 30678
  
  
    Satellite: ISS
    Catalog Number: 25544
    Epoch time:      16077.20763993   =   yrday.fracday
    Element set:     915
    Inclination:       51.6387  deg
    RA of node:       156.7524  deg
    Eccentricity:     .0002001     
    Arg of perigee:   307.8240  deg
    Mean anomaly:      52.2731  deg
    Mean motion:   15.54096337  rev/day
    Decay rate:    1.67170E-04  rev/day^2
    Epoch rev:            3067
    Checksum:              305
 
             </PRE>
           </TD>
        </TR>
    </TABLE>
    
    <table align="center" border="0" width="600" cellpadding="0" cellspacing="0">
      <tr>
        <td align="center" valign="top"><hr size="1" width="600" noshade="noshade" />
        <font face="Arial,helvetica" size="-2">Curator: <a href="/cgi-bin/comment.cgi?jsc-hsfwebma@mail.nasa.gov">Kim 
          Dismukes</a> | Responsible NASA Official: <a href="/cgi-bin/comment.cgi?jsc-hsfwebma@mail.nasa.gov">Amiko Kauderer</a> | Updated: 06/08/2009<br />
        <a href="http://www.nasa.gov/about/highlights/HP_Privacy.html">Privacy Policy and Important Notices</a></font></td>
      </tr>
    </table>
    </body>
    </html>
